[
    {
        "Altitude(m)": 610399.5756537745,
        "Argument of Periapsis(deg)": 0.0,
        "Eccentricity": 0.0,
        "Inclination(deg)": 60.0,
        "Latitude(deg)": 52.111464097991316,
        "Longitude(deg)": 112.58432924302382,
        "Mean Anomaly(deg)": 65.45450000000001,
        "RAAN(deg)": 165.0,
        "Satellite Name": "Test1 730",
        "Satellite Number": 730,
        "Semi-Major Axis(m)": 6980739.136638005,
        "Time(s)": 0
    },
    {
        "Altitude(m)": 610481.7264935168,
        "Argument of Periapsis(deg)": 0.00010418945913296404,
        "Eccentricity": 0.0,
        "Inclination(deg)": 60.0,
        "Latitude(deg)": 52.471066080157065,
        "Longitude(deg)": 113.36646805106342,
        "Mean Anomaly(deg)": 66.07460614546181,
        "RAAN(deg)": 164.99957995086024,
        "Satellite Name": "Test1 730",
        "Satellite Number": 730,
        "Semi-Major Axis(m)": 6980739.136638005,
        "Time(s)": 10
    },
    {
        "Altitude(m)": 610562.4161338714,
        "Argument of Periapsis(deg)": 0.0002083789182659281,
        "Eccentricity": 0.0,
        "Inclination(deg)": 60.0,
        "Latitude(deg)": 52.82482063010195,
        "Longitude(deg)": 114.16201996088964,
        "Mean Anomaly(deg)": 66.69471229092363,
        "RAAN(deg)": 164.9991599017205,
        "Satellite Name": "Test1 730",
        "Satellite Number": 730,
        "Semi-Major Axis(m)": 6980739.136638005,
        "Time(s)": 20
    },
    {
        "Altitude(m)": 610641.5971090319,
        "Argument of Periapsis(deg)": 0.00031256837739889213,
        "Eccentricity": 0.0,
        "Inclination(deg)": 60.0,
        "Latitude(deg)": 53.17255821954251,
        "Longitude(deg)": 114.97114948394886,
        "Mean Anomaly(deg)": 67.3148184363855,
        "RAAN(deg)": 164.99873985258077,
        "Satellite Name": "Test1 730",
        "Satellite Number": 730,
        "Semi-Major Axis(m)": 6980739.136638005,
        "Time(s)": 30
    },
    {
        "Altitude(m)": 610719.222909659,
        "Argument of Periapsis(deg)": 0.0004167578365318562,
        "Eccentricity": 0.0,
        "Inclination(deg)": 60.0,
        "Latitude(deg)": 53.514105844255866,
        "Longitude(deg)": 115.79400951894351,
        "Mean Anomaly(deg)": 67.93492458184731,
        "RAAN(deg)": 164.99831980344103,
        "Satellite Name": "Test1 730",
        "Satellite Number": 730,
        "Semi-Major Axis(m)": 6980739.136638005,
        "Time(s)": 40
    },
    {
        "Altitude(m)": 610795.2480051917,
        "Argument of Periapsis(deg)": 0.0005209472956648203,
        "Eccentricity": 0.0,
        "Inclination(deg)": 60.0,
        "Latitude(deg)": 53.84928714604833,
        "Longitude(deg)": 116.63073893761451,
        "Mean Anomaly(deg)": 68.55503072730917,
        "RAAN(deg)": 164.99789975430127,
        "Satellite Name": "Test1 730",
        "Satellite Number": 730,
        "Semi-Major Axis(m)": 6980739.136638005,
        "Time(s)": 50
    },
    {
        "Altitude(m)": 610869.6278656956,
        "Argument of Periapsis(deg)": 0.0006251367547977843,
        "Eccentricity": 0.0,
        "Inclination(deg)": 60.0,
        "Latitude(deg)": 54.17792255904817,
        "Longitude(deg)": 117.48146161775611,
        "Mean Anomaly(deg)": 69.175136872771,
        "RAAN(deg)": 164.99747970516154,
        "Satellite Name": "Test1 730",
        "Satellite Number": 730,
        "Semi-Major Axis(m)": 6980739.136638005,
        "Time(s)": 60
    },
    {
        "Altitude(m)": 610942.31898318,
        "Argument of Periapsis(deg)": 0.0007293262139307483,
        "Eccentricity": 0.0,
        "Inclination(deg)": 60.0,
        "Latitude(deg)": 54.49982948198811,
        "Longitude(deg)": 118.34628541489018,
        "Mean Anomaly(deg)": 69.79524301823281,
        "RAAN(deg)": 164.99705965602178,
        "Satellite Name": "Test1 730",
        "Satellite Number": 730,
        "Semi-Major Axis(m)": 6980739.136638005,
        "Time(s)": 70
    },
    {
        "Altitude(m)": 611013.2788924191,
        "Argument of Periapsis(deg)": 0.0008335156730637124,
        "Eccentricity": 0.0,
        "Inclination(deg)": 60.0,
        "Latitude(deg)": 54.81482247810273,
        "Longitude(deg)": 119.22529956534065,
        "Mean Anomaly(deg)": 70.41534916369463,
        "RAAN(deg)": 164.99663960688207,
        "Satellite Name": "Test1 730",
        "Satellite Number": 730,
        "Semi-Major Axis(m)": 6980739.136638005,
        "Time(s)": 80
    },
    {
        "Altitude(m)": 611082.4661912563,
        "Argument of Periapsis(deg)": 0.0009377051321966765,
        "Eccentricity": 0.0,
        "Inclination(deg)": 60.0,
        "Latitude(deg)": 55.122713504197826,
        "Longitude(deg)": 120.11857355350702,
        "Mean Anomaly(deg)": 71.03545530915649,
        "RAAN(deg)": 164.9962195577423,
        "Satellite Name": "Test1 730",
        "Satellite Number": 730,
        "Semi-Major Axis(m)": 6980739.136638005,
        "Time(s)": 90
    },
    {
        "Altitude(m)": 611149.8405603842,
        "Argument of Periapsis(deg)": 0.0010418945913296407,
        "Eccentricity": 0.0,
        "Inclination(deg)": 60.0,
        "Latitude(deg)": 55.42331217035299,
        "Longitude(deg)": 121.02615593904973,
        "Mean Anomaly(deg)": 71.65556145461831,
        "RAAN(deg)": 164.99579950860257,
        "Satellite Name": "Test1 730",
        "Satellite Number": 730,
        "Semi-Major Axis(m)": 6980739.136638005,
        "Time(s)": 100
    },
    {
        "Altitude(m)": 611215.3627825921,
        "Argument of Periapsis(deg)": 0.0011460840504626045,
        "Eccentricity": 0.0,
        "Inclination(deg)": 60.0,
        "Latitude(deg)": 55.71642603158732,
        "Longitude(deg)": 121.94807164133644,
        "Mean Anomaly(deg)": 72.27566760008011,
        "RAAN(deg)": 164.9953794594628,
        "Satellite Name": "Test1 730",
        "Satellite Number": 730,
        "Semi-Major Axis(m)": 6980739.136638005,
        "Time(s)": 110
    },
    {
        "Altitude(m)": 611278.9947614592,
        "Argument of Periapsis(deg)": 0.0012502735095955685,
        "Eccentricity": 0.0,
        "Inclination(deg)": 60.0,
        "Latitude(deg)": 56.00186091264411,
        "Longitude(deg)": 122.88432071885151,
        "Mean Anomaly(deg)": 72.89577374554194,
        "RAAN(deg)": 164.99495941032308,
        "Satellite Name": "Test1 730",
        "Satellite Number": 730,
        "Semi-Major Axis(m)": 6980739.136638005,
        "Time(s)": 120
    },
    {
        "Altitude(m)": 611340.6995395068,
        "Argument of Periapsis(deg)": 0.0013544629687285324,
        "Eccentricity": 0.0,
        "Inclination(deg)": 60.0,
        "Latitude(deg)": 56.27942126684336,
        "Longitude(deg)": 123.83487714441196,
        "Mean Anomaly(deg)": 73.51587989100379,
        "RAAN(deg)": 164.99453936118334,
        "Satellite Name": "Test1 730",
        "Satellite Number": 730,
        "Semi-Major Axis(m)": 6980739.136638005,
        "Time(s)": 130
    },
    {
        "Altitude(m)": 611400.4413158273,
        "Argument of Periapsis(deg)": 0.0014586524278614966,
        "Eccentricity": 0.0,
        "Inclination(deg)": 60.0,
        "Latitude(deg)": 56.548910569697114,
        "Longitude(deg)": 124.79968607883924,
        "Mean Anomaly(deg)": 74.13598603646562,
        "RAAN(deg)": 164.9941193120436,
        "Satellite Name": "Test1 730",
        "Satellite Number": 730,
        "Semi-Major Axis(m)": 6980739.136638005,
        "Time(s)": 140
    },
    {
        "Altitude(m)": 611458.1854630626,
        "Argument of Periapsis(deg)": 0.0015628418869944607,
        "Eccentricity": 0.0,
        "Inclination(deg)": 60.0,
        "Latitude(deg)": 56.81013174768095,
        "Longitude(deg)": 125.77866268615598,
        "Mean Anomaly(deg)": 74.75609218192747,
        "RAAN(deg)": 164.99369926290385,
        "Satellite Name": "Test1 730",
        "Satellite Number": 730,
        "Semi-Major Axis(m)": 6980739.136638005,
        "Time(s)": 150
    },
    {
        "Altitude(m)": 611513.8985439132,
        "Argument of Periapsis(deg)": 0.0016670313461274247,
        "Eccentricity": 0.0,
        "Inclination(deg)": 60.0,
        "Latitude(deg)": 57.06288764221296,
        "Longitude(deg)": 126.77169099648745,
        "Mean Anomaly(deg)": 75.3761983273893,
        "RAAN(deg)": 164.9932792137641,
        "Satellite Name": "Test1 730",
        "Satellite Number": 730,
        "Semi-Major Axis(m)": 6980739.136638005,
        "Time(s)": 160
    },
    {
        "Altitude(m)": 611567.5483270034,
        "Argument of Periapsis(deg)": 0.0017712208052603888,
        "Eccentricity": 0.0,
        "Inclination(deg)": 60.0,
        "Latitude(deg)": 57.30698150850341,
        "Longitude(deg)": 127.77862132448533,
        "Mean Anomaly(deg)": 75.99630447285111,
        "RAAN(deg)": 164.99285916462438,
        "Satellite Name": "Test1 730",
        "Satellite Number": 730,
        "Semi-Major Axis(m)": 6980739.136638005,
        "Time(s)": 170
    },
    {
        "Altitude(m)": 611619.1038021952,
        "Argument of Periapsis(deg)": 0.001875410264393353,
        "Eccentricity": 0.0,
        "Inclination(deg)": 60.0,
        "Latitude(deg)": 57.54221754849859,
        "Longitude(deg)": 128.7992692912071,
        "Mean Anomaly(deg)": 76.61641061831293,
        "RAAN(deg)": 164.99243911548464,
        "Satellite Name": "Test1 730",
        "Satellite Number": 730,
        "Semi-Major Axis(m)": 6980739.136638005,
        "Time(s)": 180
    },
    {
        "Altitude(m)": 611668.5351952756,
        "Argument of Periapsis(deg)": 0.0019795997235263173,
        "Eccentricity": 0.0,
        "Inclination(deg)": 60.0,
        "Latitude(deg)": 57.76840147667057,
        "Longitude(deg)": 129.83341496002015,
        "Mean Anomaly(deg)": 77.23651676377479,
        "RAAN(deg)": 164.99201906634488,
        "Satellite Name": "Test1 730",
        "Satellite Number": 730,
        "Semi-Major Axis(m)": 6980739.136638005,
        "Time(s)": 190
    }
]